{"type": "FeatureCollection", "features": [ {"type": "Feature", "properties": {"norad_id": 30252, "name": "FENGYUN 1C DEB", "group": "fengyun-1c-debris", "lat": -56.728487100514634, "lon": 18.666297086262666, "alt_km": 851.1047661445273, "timestamp": "2025-12-16T03:53:27.330579+00:00", "meta": {"OBJECT_NAME": "FENGYUN 1C DEB", "OBJECT_ID": "1999-025XM", "EPOCH": "2025-12-15T01:12:28.258848", "MEAN_MOTION": 14.09714047, "ECCENTRICITY": 0.00660203, "INCLINATION": 98.7434, "RA_OF_ASC_NODE": 4.0222, "ARG_OF_PERICENTER": 234.9888, "MEAN_ANOMALY": 187.4121, "EPHEMERIS_TYPE": 0, "CLASSIFICATION_TYPE": "U", "NORAD_CAT_ID": 30252, "ELEMENT_SET_NO": 999, "REV_AT_EPOCH": 96998, "BSTAR": 0.00050791426, "MEAN_MOTION_DOT": 8.66e-06, "MEAN_MOTION_DDOT": 0}, "tle": {"line1": "1 30252U 99025XM  25349.05032707  .00000866  00000+0  50791-3 0  9998", "line2": "2 30252  98.7434   4.0222 0066020 234.9888 187.4121 14.09714047969987"}}, "geometry": {"type": "Point", "coordinates": [18.666297086262666, -56.728487100514634]}}, {"type": "Feature", "properties": {"norad_id": 30253, "name": "FENGYUN 1C DEB", "group": "fengyun-1c-debris", "lat": 3.8675222883730482, "lon": 77.33807979941307, "alt_km": 845.7915030441281, "timestamp": "2025-12-16T03:53:27.330589+00:00", "meta": {"OBJECT_NAME": "FENGYUN 1C DEB", "OBJECT_ID": "1999-025XN", "EPOCH": "2025-12-15T05:23:43.374048", "MEAN_MOTION": 13.73191078, "ECCENTRICITY": 0.02212747, "INCLINATION": 98.752, "RA_OF_ASC_NODE": 77.0768, "ARG_OF_PERICENTER": 34.5674, "MEAN_ANOMALY": 19.5245, "EPHEMERIS_TYPE": 0, "CLASSIFICATION_TYPE": "U", "NORAD_CAT_ID": 30253, "ELEMENT_SET_NO": 999, "REV_AT_EPOCH": 94048, "BSTAR": 0.0016291099, "MEAN_MOTION_DOT": 1.761e-05, "MEAN_MOTION_DDOT": 0}, "tle": {"line1": "1 30253U 99025XN  25349.22480757  .00001761  00000+0  16291-2 0  9991", "line2": "2 30253  98.7520  77.0768 0221274  34.5674  19.5245 13.73191078940489"}}, "geometry": {"type": "Point", "coordinates": [77.33807979941307, 3.8675222883730482]}}, {"type": "Feature", "properties": {"norad_id": 30257, "name": "FENGYUN 1C DEB", "group": "fengyun-1c-debris", "lat": -57.93014929492701, "lon": 2.8597032197062275, "alt_km": 904.2222731726952, "timestamp": "2025-12-16T03:53:27.330599+00:00", "meta": {"OBJECT_NAME": "FENGYUN 1C DEB", "OBJECT_ID": "1999-025XS", "EPOCH": "2025-12-15T06:05:25.964736", "MEAN_MOTION": 14.09725128, "ECCENTRICITY": 0.00596951, "INCLINATION": 98.7497, "RA_OF_ASC_NODE": 347.748, "ARG_OF_PERICENTER": 92.2886, "MEAN_ANOMALY": 281.7964, "EPHEMERIS_TYPE": 0, "CLASSIFICATION_TYPE": "U", "NORAD_CAT_ID": 30257, "ELEMENT_SET_NO": 999, "REV_AT_EPOCH": 97253, "BSTAR": 0.00010211949, "MEAN_MOTION_DOT": 1.4e-06, "MEAN_MOTION_DDOT": 0}, "tle": {"line1": "1 30257U 99025XS  25349.25377274  .00000140  00000+0  10212-3 0  9995", "line2": "2 30257  98.7497 347.7480 0059695  92.2886 281.7964 14.09725128972537"}}, "geometry": {"type": "Point", "coordinates": [2.8597032197062275, -57.93014929492701]}}, {"type": "Feature", "properties": {"norad_id": 30259, "name": "FENGYUN 1C DEB", "group": "fengyun-1c-debris", "lat": 40.10405792714831, "lon": 29.49193206634423, "alt_km": 796.6808293551612, "timestamp": "2025-12-16T03:53:27.330623+00:00", "meta": {"OBJECT_NAME": "FENGYUN 1C DEB", "OBJECT_ID": "1999-025XU", "EPOCH": "2025-12-15T08:12:39.465216", "MEAN_MOTION": 14.51519604, "ECCENTRICITY": 0.02420102, "INCLINATION": 98.762, "RA_OF_ASC_NODE": 201.1732, "ARG_OF_PERICENTER": 260.3754, "MEAN_ANOMALY": 278.9206, "EPHEMERIS_TYPE": 0, "CLASSIFICATION_TYPE": "U", "NORAD_CAT_ID": 30259, "ELEMENT_SET_NO": 999, "REV_AT_EPOCH": 99512, "BSTAR": 0.00035584371, "MEAN_MOTION_DOT": 2.018e-05, "MEAN_MOTION_DDOT": 0}, "tle": {"line1": "1 30259U 99025XU  25349.34212344  .00002018  00000+0  35584-3 0  9998", "line2": "2 30259  98.7620 201.1732 0242010 260.3754 278.9206 14.51519604995121"}}, "geometry": {"type": "Point", "coordinates": [29.49193206634423, 40.10405792714831]}}, {"type": "Feature", "properties": {"norad_id": 30263, "name": "FENGYUN 1C DEB", "group": "fengyun-1c-debris", "lat": 11.267618338312438, "lon": 103.47640123346946, "alt_km": 791.3783432027749, "timestamp": "2025-12-16T03:53:27.330635+00:00", "meta": {"OBJECT_NAME": "FENGYUN 1C DEB", "OBJECT_ID": "1999-025XY", "EPOCH": "2025-12-14T07:33:02.838816", "MEAN_MOTION": 14.01480098, "ECCENTRICITY": 0.01448664, "INCLINATION": 98.9355, "RA_OF_ASC_NODE": 103.4633, "ARG_OF_PERICENTER": 355.7896, "MEAN_ANOMALY": 58.9787, "EPHEMERIS_TYPE": 0, "CLASSIFICATION_TYPE": "U", "NORAD_CAT_ID": 30263, "ELEMENT_SET_NO": 999, "REV_AT_EPOCH": 96047, "BSTAR": 0.0011470838, "MEAN_MOTION_DOT": 1.855e-05, "MEAN_MOTION_DDOT": 0}, "tle": {"line1": "1 30263U 99025XY  25348.31461619  .00001855  00000+0  11471-2 0  9996", "line2": "2 30263  98.9355 103.4633 0144866 355.7896  58.9787 14.01480098960472"}}, "geometry": {"type": "Point", "coordinates": [103.47640123346946, 11.267618338312438]}}, {"type": "Feature", "properties": {"norad_id": 30264, "name": "FENGYUN 1C DEB", "group": "fengyun-1c-debris", "lat": -79.44973950434512, "lon": 103.27010676261287, "alt_km": 797.0105292212447, "timestamp": "2025-12-16T03:53:27.330645+00:00", "meta": {"OBJECT_NAME": "FENGYUN 1C DEB", "OBJECT_ID": "1999-025XZ", "EPOCH": "2025-12-15T02:50:07.066176", "MEAN_MOTION": 14.07647593, "ECCENTRICITY": 0.01073305, "INCLINATION": 98.9703, "RA_OF_ASC_NODE": 44.2296, "ARG_OF_PERICENTER": 280.6662, "MEAN_ANOMALY": 107.4529, "EPHEMERIS_TYPE": 0, "CLASSIFICATION_TYPE": "U", "NORAD_CAT_ID": 30264, "ELEMENT_SET_NO": 999, "REV_AT_EPOCH": 96591, "BSTAR": 0.00097073097, "MEAN_MOTION_DOT": 1.683e-05, "MEAN_MOTION_DDOT": 0}, "tle": {"line1": "1 30264U 99025XZ  25349.11813734  .00001683  00000+0  97073-3 0  9997", "line2": "2 30264  98.9703  44.2296 0107330 280.6662 107.4529 14.07647593965918"}}, "geometry": {"type": "Point", "coordinates": [103.27010676261287, -79.44973950434512]}}, {"type": "Feature", "properties": {"norad_id": 30265, "name": "FENGYUN 1C DEB", "group": "fengyun-1c-debris", "lat": -23.122779230664843, "lon": -84.30119533109463, "alt_km": 721.4907439581475, "timestamp": "2025-12-16T03:53:27.330656+00:00", "meta": {"OBJECT_NAME": "FENGYUN 1C DEB", "OBJECT_ID": "1999-025YA", "EPOCH": "2025-12-14T20:15:25.969248", "MEAN_MOTION": 14.5867296, "ECCENTRICITY": 0.002822, "INCLINATION": 98.6632, "RA_OF_ASC_NODE": 98.058, "ARG_OF_PERICENTER": 6.5011, "MEAN_ANOMALY": 119.4267, "EPHEMERIS_TYPE": 0, "CLASSIFICATION_TYPE": "U", "NORAD_CAT_ID": 30265, "ELEMENT_SET_NO": 999, "REV_AT_EPOCH": 98432, "BSTAR": 0.0013952251, "MEAN_MOTION_DOT": 6.493e-05, "MEAN_MOTION_DDOT": 0}, "tle": {"line1": "1 30265U 99025YA  25348.84405057  .00006493  00000+0  13952-2 0  9999", "line2": "2 30265  98.6632  98.0580 0028220   6.5011 119.4267 14.58672960984323"}}, "geometry": {"type": "Point", "coordinates": [-84.30119533109463, -23.122779230664843]}}, {"type": "Feature", "properties": {"norad_id": 30266, "name": "FENGYUN 1C DEB", "group": "fengyun-1c-debris", "lat": 39.93562593044826, "lon": 46.75785645854855, "alt_km": 781.4362085639132, "timestamp": "2025-12-16T03:53:27.330666+00:00", "meta": {"OBJECT_NAME": "FENGYUN 1C DEB", "OBJECT_ID": "1999-025YB", "EPOCH": "2025-12-15T04:15:44.938944", "MEAN_MOTION": 14.15095938, "ECCENTRICITY": 0.00824879, "INCLINATION": 99.0432, "RA_OF_ASC_NODE": 53.4222, "ARG_OF_PERICENTER": 59.1236, "MEAN_ANOMALY": 9.0588, "EPHEMERIS_TYPE": 0, "CLASSIFICATION_TYPE": "U", "NORAD_CAT_ID": 30266, "ELEMENT_SET_NO": 999, "REV_AT_EPOCH": 96824, "BSTAR": 0.0010001809, "MEAN_MOTION_DOT": 1.959e-05, "MEAN_MOTION_DDOT": 0}, "tle": {"line1": "1 30266U 99025YB  25349.17760346  .00001959  00000+0  10002-2 0  9997", "line2": "2 30266  99.0432  53.4222 0082487  59.1236   9.0588 14.15095938968243"}}, "geometry": {"type": "Point", "coordinates": [46.75785645854855, 39.93562593044826]}}, {"type": "Feature", "properties": {"norad_id": 30267, "name": "FENGYUN 1C DEB", "group": "fengyun-1c-debris", "lat": 58.53274373451922, "lon": 46.59636595011958, "alt_km": 849.7626604234529, "timestamp": "2025-12-16T03:53:27.330677+00:00", "meta": {"OBJECT_NAME": "FENGYUN 1C DEB", "OBJECT_ID": "1999-025YC", "EPOCH": "2025-12-15T03:59:36.960864", "MEAN_MOTION": 14.23624685, "ECCENTRICITY": 0.0059259, "INCLINATION": 98.8504, "RA_OF_ASC_NODE": 60.3437, "ARG_OF_PERICENTER": 236.1689, "MEAN_ANOMALY": 123.3839, "EPHEMERIS_TYPE": 0, "CLASSIFICATION_TYPE": "U", "NORAD_CAT_ID": 30267, "ELEMENT_SET_NO": 999, "REV_AT_EPOCH": 97329, "BSTAR": 0.0010883678, "MEAN_MOTION_DOT": 2.481e-05, "MEAN_MOTION_DDOT": 0}, "tle": {"line1": "1 30267U 99025YC  25349.16640001  .00002481  00000+0  10884-2 0  9991", "line2": "2 30267  98.8504  60.3437 0059259 236.1689 123.3839 14.23624685973292"}}, "geometry": {"type": "Point", "coordinates": [46.59636595011958, 58.53274373451922]}}, {"type": "Feature", "properties": {"norad_id": 30270, "name": "FENGYUN 1C DEB", "group": "fengyun-1c-debris", "lat": -74.43494152148804, "lon": 150.4226702354478, "alt_km": 863.9281124819481, "timestamp": "2025-12-16T03:53:27.330687+00:00", "meta": {"OBJECT_NAME": "FENGYUN 1C DEB", "OBJECT_ID": "1999-025YF", "EPOCH": "2025-12-15T01:28:31.177344", "MEAN_MOTION": 14.11272073, "ECCENTRICITY": 0.00075465, "INCLINATION": 98.7022, "RA_OF_ASC_NODE": 2.7122, "ARG_OF_PERICENTER": 152.8822, "MEAN_ANOMALY": 275.2398, "EPHEMERIS_TYPE": 0, "CLASSIFICATION_TYPE": "U", "NORAD_CAT_ID": 30270, "ELEMENT_SET_NO": 999, "REV_AT_EPOCH": 97394, "BSTAR": 0.0001568242, "MEAN_MOTION_DOT": 2.41e-06, "MEAN_MOTION_DDOT": 0}, "tle": {"line1": "1 30270U 99025YF  25349.06147196  .00000241  00000+0  15682-3 0  9995", "line2": "2 30270  98.7022   2.7122 0007546 152.8822 275.2398 14.11272073973942"}}, "geometry": {"type": "Point", "coordinates": [150.4226702354478, -74.43494152148804]}}]}